<?xml version="1.0" encoding="UTF-8"?>
<ndm xmlns:xsi="http://www.w3.org/2001/XMLSchema-instance" xsi:noNamespaceSchemaLocation="https://sanaregistry.org/r/ndmxml_unqualified/ndmxml-2.0.0-master-2.0.xsd">
<omm id="CCSDS_OMM_VERS" version="2.0">
<header><CREATION_DATE/><ORIGINATOR/></header><body><segment><metadata><OBJECT_NAME>ORBCOMM FM103</OBJECT_NAME><OBJECT_ID>2014-040F</OBJECT_ID><CENTER_NAME>EARTH</CENTER_NAME><REF_FRAME>TEME</REF_FRAME><TIME_SYSTEM>UTC</TIME_SYSTEM><MEAN_ELEMENT_THEORY>SGP4</MEAN_ELEMENT_THEORY></metadata><data><meanElements><EPOCH>2025-10-01T05:58:31.785600</EPOCH><MEAN_MOTION>14.58343408</MEAN_MOTION><ECCENTRICITY>.00015294</ECCENTRICITY><INCLINATION>47.0036</INCLINATION><RA_OF_ASC_NODE>236.8585</RA_OF_ASC_NODE><ARG_OF_PERICENTER>13.7674</ARG_OF_PERICENTER><MEAN_ANOMALY>346.3253</MEAN_ANOMALY></meanElements><tleParameters><EPHEMERIS_TYPE>0</EPHEMERIS_TYPE><CLASSIFICATION_TYPE>U</CLASSIFICATION_TYPE><NORAD_CAT_ID>40091</NORAD_CAT_ID><ELEMENT_SET_NO>999</ELEMENT_SET_NO><REV_AT_EPOCH>57958</REV_AT_EPOCH><BSTAR>.51528796E-3</BSTAR><MEAN_MOTION_DOT>.2239E-4</MEAN_MOTION_DOT><MEAN_MOTION_DDOT>0</MEAN_MOTION_DDOT></tleParameters></data></segment></body></omm>
<omm id="CCSDS_OMM_VERS" version="2.0">
<header><CREATION_DATE/><ORIGINATOR/></header><body><segment><metadata><OBJECT_NAME>ORBCOMM FM114</OBJECT_NAME><OBJECT_ID>2015-081A</OBJECT_ID><CENTER_NAME>EARTH</CENTER_NAME><REF_FRAME>TEME</REF_FRAME><TIME_SYSTEM>UTC</TIME_SYSTEM><MEAN_ELEMENT_THEORY>SGP4</MEAN_ELEMENT_THEORY></metadata><data><meanElements><EPOCH>2025-09-30T23:50:41.373024</EPOCH><MEAN_MOTION>14.58377680</MEAN_MOTION><ECCENTRICITY>.00015432</ECCENTRICITY><INCLINATION>47.0020</INCLINATION><RA_OF_ASC_NODE>147.0562</RA_OF_ASC_NODE><ARG_OF_PERICENTER>115.6768</ARG_OF_PERICENTER><MEAN_ANOMALY>244.4278</MEAN_ANOMALY></meanElements><tleParameters><EPHEMERIS_TYPE>0</EPHEMERIS_TYPE><CLASSIFICATION_TYPE>U</CLASSIFICATION_TYPE><NORAD_CAT_ID>41179</NORAD_CAT_ID><ELEMENT_SET_NO>999</ELEMENT_SET_NO><REV_AT_EPOCH>51991</REV_AT_EPOCH><BSTAR>.34939254E-3</BSTAR><MEAN_MOTION_DOT>.1464E-4</MEAN_MOTION_DOT><MEAN_MOTION_DDOT>0</MEAN_MOTION_DDOT></tleParameters></data></segment></body></omm>
<omm id="CCSDS_OMM_VERS" version="2.0">
<header><CREATION_DATE/><ORIGINATOR/></header><body><segment><metadata><OBJECT_NAME>ORBCOMM FM119</OBJECT_NAME><OBJECT_ID>2015-081B</OBJECT_ID><CENTER_NAME>EARTH</CENTER_NAME><REF_FRAME>TEME</REF_FRAME><TIME_SYSTEM>UTC</TIME_SYSTEM><MEAN_ELEMENT_THEORY>SGP4</MEAN_ELEMENT_THEORY></metadata><data><meanElements><EPOCH>2025-09-30T13:48:28.049760</EPOCH><MEAN_MOTION>14.58315106</MEAN_MOTION><ECCENTRICITY>.0001421</ECCENTRICITY><INCLINATION>47.0000</INCLINATION><RA_OF_ASC_NODE>58.3715</RA_OF_ASC_NODE><ARG_OF_PERICENTER>200.1629</ARG_OF_PERICENTER><MEAN_ANOMALY>159.9200</MEAN_ANOMALY></meanElements><tleParameters><EPHEMERIS_TYPE>0</EPHEMERIS_TYPE><CLASSIFICATION_TYPE>U</CLASSIFICATION_TYPE><NORAD_CAT_ID>41180</NORAD_CAT_ID><ELEMENT_SET_NO>999</ELEMENT_SET_NO><REV_AT_EPOCH>52110</REV_AT_EPOCH><BSTAR>.50076E-3</BSTAR><MEAN_MOTION_DOT>.217E-4</MEAN_MOTION_DOT><MEAN_MOTION_DDOT>0</MEAN_MOTION_DDOT></tleParameters></data></segment></body></omm>
<omm id="CCSDS_OMM_VERS" version="2.0">
<header><CREATION_DATE/><ORIGINATOR/></header><body><segment><metadata><OBJECT_NAME>ORBCOMM FM105</OBJECT_NAME><OBJECT_ID>2015-081C</OBJECT_ID><CENTER_NAME>EARTH</CENTER_NAME><REF_FRAME>TEME</REF_FRAME><TIME_SYSTEM>UTC</TIME_SYSTEM><MEAN_ELEMENT_THEORY>SGP4</MEAN_ELEMENT_THEORY></metadata><data><meanElements><EPOCH>2025-09-30T17:13:07.640256</EPOCH><MEAN_MOTION>14.45307715</MEAN_MOTION><ECCENTRICITY>.00012015</ECCENTRICITY><INCLINATION>47.0016</INCLINATION><RA_OF_ASC_NODE>72.9252</RA_OF_ASC_NODE><ARG_OF_PERICENTER>74.2757</ARG_OF_PERICENTER><MEAN_ANOMALY>285.8256</MEAN_ANOMALY></meanElements><tleParameters><EPHEMERIS_TYPE>0</EPHEMERIS_TYPE><CLASSIFICATION_TYPE>U</CLASSIFICATION_TYPE><NORAD_CAT_ID>41181</NORAD_CAT_ID><ELEMENT_SET_NO>999</ELEMENT_SET_NO><REV_AT_EPOCH>51601</REV_AT_EPOCH><BSTAR>.26623185E-3</BSTAR><MEAN_MOTION_DOT>.786E-5</MEAN_MOTION_DOT><MEAN_MOTION_DDOT>0</MEAN_MOTION_DDOT></tleParameters></data></segment></body></omm>
<omm id="CCSDS_OMM_VERS" version="2.0">
<header><CREATION_DATE/><ORIGINATOR/></header><body><segment><metadata><OBJECT_NAME>ORBCOMM FM110</OBJECT_NAME><OBJECT_ID>2015-081D</OBJECT_ID><CENTER_NAME>EARTH</CENTER_NAME><REF_FRAME>TEME</REF_FRAME><TIME_SYSTEM>UTC</TIME_SYSTEM><MEAN_ELEMENT_THEORY>SGP4</MEAN_ELEMENT_THEORY></metadata><data><meanElements><EPOCH>2025-10-01T01:17:49.256448</EPOCH><MEAN_MOTION>14.58404955</MEAN_MOTION><ECCENTRICITY>.00026523</ECCENTRICITY><INCLINATION>47.0001</INCLINATION><RA_OF_ASC_NODE>146.3036</RA_OF_ASC_NODE><ARG_OF_PERICENTER>321.3350</ARG_OF_PERICENTER><MEAN_ANOMALY>38.7346</MEAN_ANOMALY></meanElements><tleParameters><EPHEMERIS_TYPE>0</EPHEMERIS_TYPE><CLASSIFICATION_TYPE>U</CLASSIFICATION_TYPE><NORAD_CAT_ID>41182</NORAD_CAT_ID><ELEMENT_SET_NO>999</ELEMENT_SET_NO><REV_AT_EPOCH>51979</REV_AT_EPOCH><BSTAR>.49634789E-3</BSTAR><MEAN_MOTION_DOT>.2153E-4</MEAN_MOTION_DOT><MEAN_MOTION_DDOT>0</MEAN_MOTION_DDOT></tleParameters></data></segment></body></omm>
<omm id="CCSDS_OMM_VERS" version="2.0">
<header><CREATION_DATE/><ORIGINATOR/></header><body><segment><metadata><OBJECT_NAME>ORBCOMM FM118</OBJECT_NAME><OBJECT_ID>2015-081E</OBJECT_ID><CENTER_NAME>EARTH</CENTER_NAME><REF_FRAME>TEME</REF_FRAME><TIME_SYSTEM>UTC</TIME_SYSTEM><MEAN_ELEMENT_THEORY>SGP4</MEAN_ELEMENT_THEORY></metadata><data><meanElements><EPOCH>2025-10-01T05:21:57.820896</EPOCH><MEAN_MOTION>14.58378689</MEAN_MOTION><ECCENTRICITY>.00032432</ECCENTRICITY><INCLINATION>47.0022</INCLINATION><RA_OF_ASC_NODE>145.7644</RA_OF_ASC_NODE><ARG_OF_PERICENTER>282.1129</ARG_OF_PERICENTER><MEAN_ANOMALY>77.9393</MEAN_ANOMALY></meanElements><tleParameters><EPHEMERIS_TYPE>0</EPHEMERIS_TYPE><CLASSIFICATION_TYPE>U</CLASSIFICATION_TYPE><NORAD_CAT_ID>41183</NORAD_CAT_ID><ELEMENT_SET_NO>999</ELEMENT_SET_NO><REV_AT_EPOCH>51992</REV_AT_EPOCH><BSTAR>.50438912E-3</BSTAR><MEAN_MOTION_DOT>.219E-4</MEAN_MOTION_DOT><MEAN_MOTION_DDOT>0</MEAN_MOTION_DDOT></tleParameters></data></segment></body></omm>
<omm id="CCSDS_OMM_VERS" version="2.0">
<header><CREATION_DATE/><ORIGINATOR/></header><body><segment><metadata><OBJECT_NAME>ORBCOMM FM112</OBJECT_NAME><OBJECT_ID>2015-081F</OBJECT_ID><CENTER_NAME>EARTH</CENTER_NAME><REF_FRAME>TEME</REF_FRAME><TIME_SYSTEM>UTC</TIME_SYSTEM><MEAN_ELEMENT_THEORY>SGP4</MEAN_ELEMENT_THEORY></metadata><data><meanElements><EPOCH>2025-10-01T02:12:47.898720</EPOCH><MEAN_MOTION>14.58447326</MEAN_MOTION><ECCENTRICITY>.00011468</ECCENTRICITY><INCLINATION>46.9986</INCLINATION><RA_OF_ASC_NODE>54.9845</RA_OF_ASC_NODE><ARG_OF_PERICENTER>140.4870</ARG_OF_PERICENTER><MEAN_ANOMALY>219.6100</MEAN_ANOMALY></meanElements><tleParameters><EPHEMERIS_TYPE>0</EPHEMERIS_TYPE><CLASSIFICATION_TYPE>U</CLASSIFICATION_TYPE><NORAD_CAT_ID>41184</NORAD_CAT_ID><ELEMENT_SET_NO>999</ELEMENT_SET_NO><REV_AT_EPOCH>52112</REV_AT_EPOCH><BSTAR>.51425832E-3</BSTAR><MEAN_MOTION_DOT>.2239E-4</MEAN_MOTION_DOT><MEAN_MOTION_DDOT>0</MEAN_MOTION_DDOT></tleParameters></data></segment></body></omm>
<omm id="CCSDS_OMM_VERS" version="2.0">
<header><CREATION_DATE/><ORIGINATOR/></header><body><segment><metadata><OBJECT_NAME>ORBCOMM FM113</OBJECT_NAME><OBJECT_ID>2015-081G</OBJECT_ID><CENTER_NAME>EARTH</CENTER_NAME><REF_FRAME>TEME</REF_FRAME><TIME_SYSTEM>UTC</TIME_SYSTEM><MEAN_ELEMENT_THEORY>SGP4</MEAN_ELEMENT_THEORY></metadata><data><meanElements><EPOCH>2025-09-30T15:47:51.263808</EPOCH><MEAN_MOTION>14.58432767</MEAN_MOTION><ECCENTRICITY>.0001086</ECCENTRICITY><INCLINATION>47.0004</INCLINATION><RA_OF_ASC_NODE>57.3784</RA_OF_ASC_NODE><ARG_OF_PERICENTER>162.7033</ARG_OF_PERICENTER><MEAN_ANOMALY>197.3890</MEAN_ANOMALY></meanElements><tleParameters><EPHEMERIS_TYPE>0</EPHEMERIS_TYPE><CLASSIFICATION_TYPE>U</CLASSIFICATION_TYPE><NORAD_CAT_ID>41185</NORAD_CAT_ID><ELEMENT_SET_NO>999</ELEMENT_SET_NO><REV_AT_EPOCH>52104</REV_AT_EPOCH><BSTAR>.58625E-3</BSTAR><MEAN_MOTION_DOT>.2576E-4</MEAN_MOTION_DOT><MEAN_MOTION_DDOT>0</MEAN_MOTION_DDOT></tleParameters></data></segment></body></omm>

</ndm>
