ORBCOMM FM103           
1 40091U 14040F   25274.24897900  .00002239  00000+0  51529-3 0  9992
2 40091  47.0036 236.8585 0001529  13.7674 346.3253 14.58343408579588
ORBCOMM FM114           
1 41179U 15081A   25273.99353441  .00001464  00000+0  34939-3 0  9999
2 41179  47.0020 147.0562 0001543 115.6768 244.4278 14.58377680519914
ORBCOMM FM119           
1 41180U 15081B   25273.57532465  .00002170  00000+0  50076-3 0  9995
2 41180  47.0000  58.3715 0001421 200.1629 159.9200 14.58315106521103
ORBCOMM FM105           
1 41181U 15081C   25273.71744954  .00000786  00000+0  26623-3 0  9992
2 41181  47.0016  72.9252 0001201  74.2757 285.8256 14.45307715516014
ORBCOMM FM110           
1 41182U 15081D   25274.05404232  .00002153  00000+0  49635-3 0  9991
2 41182  47.0001 146.3036 0002652 321.3350  38.7346 14.58404955519792
ORBCOMM FM118           
1 41183U 15081E   25274.22358589  .00002190  00000+0  50439-3 0  9999
2 41183  47.0022 145.7644 0003243 282.1129  77.9393 14.58378689519925
ORBCOMM FM112           
1 41184U 15081F   25274.09222105  .00002239  00000+0  51426-3 0  9990
2 41184  46.9986  54.9845 0001146 140.4870 219.6100 14.58447326521127
ORBCOMM FM113           
1 41185U 15081G   25273.65823222  .00002576  00000+0  58625-3 0  9991
2 41185  47.0004  57.3784 0001086 162.7033 197.3890 14.58432767521043
